STARLINK-31857          
1 59843U 24097J   26067.98815413 -.00000913  00000+0 -23673-4 0  9990
2 59843  43.0010 277.9601 0001485 256.6613 103.4073 15.27571569101815
TEVEL2-1                
1 63217U 25052H   26068.64782323  .00020683  00000+0  70600-3 0  9994
2 63217  97.3991 324.7682 0004767 104.8919 255.2849 15.30341923 54855
